[{"OBJECT_NAME":"STARLINK-34127","OBJECT_ID":"2025-092G","EPOCH":"2025-11-28T04:39:40.176864","MEAN_MOTION":15.27585154,"ECCENTRICITY":0.0002304,"INCLINATION":43.0015,"RA_OF_ASC_NODE":25.6193,"ARG_OF_PERICENTER":294.0478,"MEAN_ANOMALY":66.0133,"EPHEMERIS_TYPE":0,"CLASSIFICATION_TYPE":"U","NORAD_CAT_ID":63810,"ELEMENT_SET_NO":999,"REV_AT_EPOCH":3309,"BSTAR":0.0017934,"MEAN_MOTION_DOT":0.0004943,"MEAN_MOTION_DDOT":0},{"OBJECT_NAME":"STARLINK-34110","OBJECT_ID":"2025-092H","EPOCH":"2025-11-28T03:42:21.725568","MEAN_MOTION":15.2744849,"ECCENTRICITY":0.0002454,"INCLINATION":43.0043,"RA_OF_ASC_NODE":26.1859,"ARG_OF_PERICENTER":288.524,"MEAN_ANOMALY":71.5344,"EPHEMERIS_TYPE":0,"CLASSIFICATION_TYPE":"U","NORAD_CAT_ID":63811,"ELEMENT_SET_NO":999,"REV_AT_EPOCH":3313,"BSTAR":0.0013202,"MEAN_MOTION_DOT":0.000361,"MEAN_MOTION_DDOT":0},{"OBJECT_NAME":"STARLINK-34101","OBJECT_ID":"2025-092J","EPOCH":"2025-11-28T04:10:02.966016","MEAN_MOTION":15.27617853,"ECCENTRICITY":0.0001059,"INCLINATION":42.9962,"RA_OF_ASC_NODE":25.4585,"ARG_OF_PERICENTER":279.8699,"MEAN_ANOMALY":80.2033,"EPHEMERIS_TYPE":0,"CLASSIFICATION_TYPE":"U","NORAD_CAT_ID":63812,"ELEMENT_SET_NO":999,"REV_AT_EPOCH":3303,"BSTAR":0.0010374,"MEAN_MOTION_DOT":0.00028428,"MEAN_MOTION_DDOT":0},{"OBJECT_NAME":"STARLINK-34065","OBJECT_ID":"2025-092K","EPOCH":"2025-11-28T04:16:16.840416","MEAN_MOTION":15.27608932,"ECCENTRICITY":0.0002468,"INCLINATION":42.9992,"RA_OF_ASC_NODE":21.9873,"ARG_OF_PERICENTER":300.0701,"MEAN_ANOMALY":59.9906,"EPHEMERIS_TYPE":0,"CLASSIFICATION_TYPE":"U","NORAD_CAT_ID":63813,"ELEMENT_SET_NO":999,"REV_AT_EPOCH":3307,"BSTAR":0.0011591,"MEAN_MOTION_DOT":0.00031802,"MEAN_MOTION_DDOT":0},{"OBJECT_NAME":"STARLINK-34057","OBJECT_ID":"2025-092L","EPOCH":"2025-11-28T04:21:09.944640","MEAN_MOTION":15.27589502,"ECCENTRICITY":7.74e-5,"INCLINATION":42.9974,"RA_OF_ASC_NODE":25.5183,"ARG_OF_PERICENTER":306.3695,"MEAN_ANOMALY":53.7085,"EPHEMERIS_TYPE":0,"CLASSIFICATION_TYPE":"U","NORAD_CAT_ID":63814,"ELEMENT_SET_NO":999,"REV_AT_EPOCH":3309,"BSTAR":0.00083149,"MEAN_MOTION_DOT":0.00022696,"MEAN_MOTION_DDOT":0},{"OBJECT_NAME":"STARLINK-34060","OBJECT_ID":"2025-092M","EPOCH":"2025-11-28T04:23:01.436064","MEAN_MOTION":15.27597627,"ECCENTRICITY":1.14e-5,"INCLINATION":42.9965,"RA_OF_ASC_NODE":25.5333,"ARG_OF_PERICENTER":0.7667,"MEAN_ANOMALY":359.3185,"EPHEMERIS_TYPE":0,"CLASSIFICATION_TYPE":"U","NORAD_CAT_ID":63815,"ELEMENT_SET_NO":999,"REV_AT_EPOCH":3303,"BSTAR":0.0010281,"MEAN_MOTION_DOT":0.00028152,"MEAN_MOTION_DDOT":0},{"OBJECT_NAME":"STARLINK-34048","OBJECT_ID":"2025-092N","EPOCH":"2025-11-28T03:53:37.331232","MEAN_MOTION":15.27596131,"ECCENTRICITY":8.92e-5,"INCLINATION":42.998,"RA_OF_ASC_NODE":26.2432,"ARG_OF_PERICENTER":325.9871,"MEAN_ANOMALY":34.0923,"EPHEMERIS_TYPE":0,"CLASSIFICATION_TYPE":"U","NORAD_CAT_ID":63816,"ELEMENT_SET_NO":999,"REV_AT_EPOCH":3313,"BSTAR":0.0011013,"MEAN_MOTION_DOT":0.00030183,"MEAN_MOTION_DDOT":0},{"OBJECT_NAME":"STARLINK-33959","OBJECT_ID":"2025-092P","EPOCH":"2025-11-28T04:06:22.004064","MEAN_MOTION":15.27600884,"ECCENTRICITY":5.83e-5,"INCLINATION":42.9957,"RA_OF_ASC_NODE":25.4466,"ARG_OF_PERICENTER":355.1954,"MEAN_ANOMALY":4.8892,"EPHEMERIS_TYPE":0,"CLASSIFICATION_TYPE":"U","NORAD_CAT_ID":63817,"ELEMENT_SET_NO":999,"REV_AT_EPOCH":3314,"BSTAR":0.00095979,"MEAN_MOTION_DOT":0.0002626,"MEAN_MOTION_DDOT":0},{"OBJECT_NAME":"STARLINK-34058","OBJECT_ID":"2025-092Q","EPOCH":"2025-11-28T04:15:36.928800","MEAN_MOTION":15.27603642,"ECCENTRICITY":1.52e-5,"INCLINATION":42.9992,"RA_OF_ASC_NODE":25.4973,"ARG_OF_PERICENTER":156.8295,"MEAN_ANOMALY":203.2563,"EPHEMERIS_TYPE":0,"CLASSIFICATION_TYPE":"U","NORAD_CAT_ID":63818,"ELEMENT_SET_NO":999,"REV_AT_EPOCH":3314,"BSTAR":0.001004,"MEAN_MOTION_DOT":0.00027488,"MEAN_MOTION_DDOT":0},{"OBJECT_NAME":"STARLINK-34055","OBJECT_ID":"2025-092R","EPOCH":"2025-11-28T03:48:04.044096","MEAN_MOTION":15.27598245,"ECCENTRICITY":0.000261,"INCLINATION":42.9972,"RA_OF_ASC_NODE":26.1882,"ARG_OF_PERICENTER":299.7284,"MEAN_ANOMALY":60.3307,"EPHEMERIS_TYPE":0,"CLASSIFICATION_TYPE":"U","NORAD_CAT_ID":63819,"ELEMENT_SET_NO":999,"REV_AT_EPOCH":3308,"BSTAR":0.0010268,"MEAN_MOTION_DOT":0.00028118,"MEAN_MOTION_DDOT":0},{"OBJECT_NAME":"STARLINK-33794","OBJECT_ID":"2025-092S","EPOCH":"2025-11-28T03:38:49.521984","MEAN_MOTION":15.27599819,"ECCENTRICITY":3.96e-5,"INCLINATION":43.0017,"RA_OF_ASC_NODE":26.1628,"ARG_OF_PERICENTER":276.7196,"MEAN_ANOMALY":83.3611,"EPHEMERIS_TYPE":0,"CLASSIFICATION_TYPE":"U","NORAD_CAT_ID":63820,"ELEMENT_SET_NO":999,"REV_AT_EPOCH":3308,"BSTAR":0.0010384,"MEAN_MOTION_DOT":0.00028439,"MEAN_MOTION_DDOT":0},{"OBJECT_NAME":"STARLINK-34047","OBJECT_ID":"2025-092T","EPOCH":"2025-11-28T03:33:15.764832","MEAN_MOTION":15.27609064,"ECCENTRICITY":4.9e-6,"INCLINATION":43.0003,"RA_OF_ASC_NODE":26.1332,"ARG_OF_PERICENTER":101.9918,"MEAN_ANOMALY":258.0939,"EPHEMERIS_TYPE":0,"CLASSIFICATION_TYPE":"U","NORAD_CAT_ID":63821,"ELEMENT_SET_NO":999,"REV_AT_EPOCH":3313,"BSTAR":0.0012171,"MEAN_MOTION_DOT":0.00033411,"MEAN_MOTION_DDOT":0},{"OBJECT_NAME":"STARLINK-34094","OBJECT_ID":"2025-092U","EPOCH":"2025-11-28T03:48:45.669888","MEAN_MOTION":15.27603265,"ECCENTRICITY":0.0003408,"INCLINATION":43.0041,"RA_OF_ASC_NODE":22.725,"ARG_OF_PERICENTER":289.728,"MEAN_ANOMALY":70.3204,"EPHEMERIS_TYPE":0,"CLASSIFICATION_TYPE":"U","NORAD_CAT_ID":63822,"ELEMENT_SET_NO":999,"REV_AT_EPOCH":3317,"BSTAR":0.0009383,"MEAN_MOTION_DOT":0.00025669,"MEAN_MOTION_DDOT":0},{"OBJECT_NAME":"STARLINK-34043","OBJECT_ID":"2025-092V","EPOCH":"2025-11-28T03:52:15.218400","MEAN_MOTION":15.27603193,"ECCENTRICITY":3.65e-5,"INCLINATION":42.9964,"RA_OF_ASC_NODE":21.8758,"ARG_OF_PERICENTER":133.2904,"MEAN_ANOMALY":226.7978,"EPHEMERIS_TYPE":0,"CLASSIFICATION_TYPE":"U","NORAD_CAT_ID":63823,"ELEMENT_SET_NO":999,"REV_AT_EPOCH":3313,"BSTAR":0.00097417,"MEAN_MOTION_DOT":0.00026661,"MEAN_MOTION_DDOT":0},{"OBJECT_NAME":"STARLINK-34025","OBJECT_ID":"2025-092W","EPOCH":"2025-11-28T04:13:45.758784","MEAN_MOTION":15.2760097,"ECCENTRICITY":3.24e-5,"INCLINATION":42.998,"RA_OF_ASC_NODE":25.4822,"ARG_OF_PERICENTER":181.823,"MEAN_ANOMALY":178.262,"EPHEMERIS_TYPE":0,"CLASSIFICATION_TYPE":"U","NORAD_CAT_ID":63824,"ELEMENT_SET_NO":999,"REV_AT_EPOCH":3303,"BSTAR":0.0009898,"MEAN_MOTION_DOT":0.00027093,"MEAN_MOTION_DDOT":0},{"OBJECT_NAME":"STARLINK-33874","OBJECT_ID":"2025-092X","EPOCH":"2025-11-28T05:00:01.161792","MEAN_MOTION":15.27593989,"ECCENTRICITY":9.92e-5,"INCLINATION":43.0019,"RA_OF_ASC_NODE":25.7198,"ARG_OF_PERICENTER":247.2461,"MEAN_ANOMALY":112.8286,"EPHEMERIS_TYPE":0,"CLASSIFICATION_TYPE":"U","NORAD_CAT_ID":63825,"ELEMENT_SET_NO":999,"REV_AT_EPOCH":3314,"BSTAR":0.00087818,"MEAN_MOTION_DOT":0.00023992,"MEAN_MOTION_DDOT":0},{"OBJECT_NAME":"STARLINK-33781","OBJECT_ID":"2025-092Y","EPOCH":"2025-11-28T03:51:46.331424","MEAN_MOTION":15.27602965,"ECCENTRICITY":0.0003342,"INCLINATION":43.0011,"RA_OF_ASC_NODE":26.2264,"ARG_OF_PERICENTER":289.7101,"MEAN_ANOMALY":70.339,"EPHEMERIS_TYPE":0,"CLASSIFICATION_TYPE":"U","NORAD_CAT_ID":63826,"ELEMENT_SET_NO":999,"REV_AT_EPOCH":3313,"BSTAR":0.0012131,"MEAN_MOTION_DOT":0.00033298,"MEAN_MOTION_DDOT":0}]
