STARLINK-34127          
1 63810U 25092G   25332.19421501  .00049430  00000+0  17934-2 0  9999
2 63810  43.0015  25.6193 0002304 294.0478  66.0133 15.27585154 33099
STARLINK-34110          
1 63811U 25092H   25332.15441812  .00036100  00000+0  13202-2 0  9997
2 63811  43.0043  26.1859 0002454 288.5240  71.5344 15.27448490 33138
STARLINK-34101          
1 63812U 25092J   25332.17364544  .00028428  00000+0  10374-2 0  9997
2 63812  42.9962  25.4585 0001059 279.8699  80.2033 15.27617853 33038
STARLINK-34065          
1 63813U 25092K   25332.17797269  .00031802  00000+0  11591-2 0  9994
2 63813  42.9992  21.9873 0002468 300.0701  59.9906 15.27608932 33073
STARLINK-34057          
1 63814U 25092L   25332.18136510  .00022696  00000+0  83149-3 0  9992
2 63814  42.9974  25.5183 0000774 306.3695  53.7085 15.27589502 33090
STARLINK-34060          
1 63815U 25092M   25332.18265551  .00028152  00000+0  10281-2 0  9990
2 63815  42.9965  25.5333 0000114   0.7667 359.3185 15.27597627 33037
STARLINK-34048          
1 63816U 25092N   25332.16223763  .00030183  00000+0  11013-2 0  9999
2 63816  42.9980  26.2432 0000892 325.9871  34.0923 15.27596131 33132
STARLINK-33959          
1 63817U 25092P   25332.17108801  .00026260  00000+0  95979-3 0  9991
2 63817  42.9957  25.4466 0000583 355.1954   4.8892 15.27600884 33141
STARLINK-34058          
1 63818U 25092Q   25332.17751075  .00027488  00000+0  10040-2 0  9997
2 63818  42.9992  25.4973 0000152 156.8295 203.2563 15.27603642 33145
STARLINK-34055          
1 63819U 25092R   25332.15838014  .00028118  00000+0  10268-2 0  9998
2 63819  42.9972  26.1882 0002610 299.7284  60.3307 15.27598245 33080
STARLINK-33794          
1 63820U 25092S   25332.15196206  .00028439  00000+0  10384-2 0  9995
2 63820  43.0017  26.1628 0000396 276.7196  83.3611 15.27599819 33089
STARLINK-34047          
1 63821U 25092T   25332.14809913  .00033411  00000+0  12171-2 0  9993
2 63821  43.0003  26.1332 0000049 101.9918 258.0939 15.27609064 33137
STARLINK-34094          
1 63822U 25092U   25332.15886192  .00025669  00000+0  93830-3 0  9997
2 63822  43.0041  22.7250 0003408 289.7280  70.3204 15.27603265 33171
STARLINK-34043          
1 63823U 25092V   25332.16128725  .00026661  00000+0  97417-3 0  9998
2 63823  42.9964  21.8758 0000365 133.2904 226.7978 15.27603193 33133
STARLINK-34025          
1 63824U 25092W   25332.17622406  .00027093  00000+0  98980-3 0  9991
2 63824  42.9980  25.4822 0000324 181.8230 178.2620 15.27600970 33034
STARLINK-33874          
1 63825U 25092X   25332.20834678  .00023992  00000+0  87818-3 0  9994
2 63825  43.0019  25.7198 0000992 247.2461 112.8286 15.27593989 33148
STARLINK-33781          
1 63826U 25092Y   25332.16095291  .00033298  00000+0  12131-2 0  9995
2 63826  43.0011  26.2264 0003342 289.7101  70.3390 15.27602965 33133
